ORBCOMM FM24            
1 25478U 98053D   25303.54768955  .00001576  00000+0  55752-3 0  9998
2 25478  45.0091 347.1315 0003778 222.8958 137.1596 14.38480265416938
ORBCOMM FM25            
1 25479U 98053E   25303.52181307  .00001592  00000+0  56276-3 0  9997
2 25479  45.0082 345.5455 0006175 220.3682 139.6709 14.38450036417226
ORBCOMM FM26            
1 25480U 98053F   25304.18007917  .00001240  00000+0  45766-3 0  9998
2 25480  45.0078 339.8839 0008246 233.1623 126.8469 14.37452497417215
ORBCOMM FM27            
1 25481U 98053G   25303.50644251  .00001563  00000+0  55302-3 0  9997
2 25481  45.0065 345.7692 0002815 242.3958 117.6604 14.38485107417151
ORBCOMM FM28            
1 25482U 98053H   25304.01411151  .00001559  00000+0  55010-3 0  9997
2 25482  45.0059 280.6833 0006514 272.3302  87.6800 14.38630268417913
ORBCOMM FM30            
1 25980U 99065A   25303.94597198  .00001090  00000+0  40677-3 0  9994
2 25980  45.0300 166.9874 0006820 335.3655  24.6867 14.37618727353982
ORBCOMM FM31            
1 25981U 99065B   25303.78646464  .00001020  00000+0  38410-3 0  9993
2 25981  45.0214 161.2031 0004424   1.4136 358.6724 14.37545042353513
ORBCOMM FM32            
1 25982U 99065C   25303.64447353  .00001140  00000+0  43179-3 0  9996
2 25982  45.0145 179.3612 0007039 352.6169   7.4575 14.36602650354077
